NORAD_CAT_ID,OBJECT_NAME,OBJECT_TYPE,EPOCH,MEAN_MOTION,ECCENTRICITY,INCLINATION,RA_OF_ASC_NODE,ARG_OF_PERICENTER,MEAN_ANOMALY,BSTAR,MEAN_MOTION_DOT,MEAN_MOTION_DDOT,TLE_LINE0,TLE_LINE1,TLE_LINE2,SEMIMAJOR_AXIS,PERIOD,APOGEE,PERIGEE,DECAYED
51750.0,STARLINK-3505,PAYLOAD,2023-11-23 10:15:21,15.08837105,0.0001456,53.2153,107.7496,75.1413,284.9741,4.5599e-05,4.38e-06,0.0,0 STARLINK-3505,1 51750U 22016AN  23327.42733518  .00000438  00000-0  45599-4 0  9990,2 51750  53.2153 107.7496 0001456  75.1413 284.9741 15.08837105 98426,6917.889,95.438,540.761,538.747,0.0
51750.0,STARLINK-3505,PAYLOAD,2023-11-23 13:26:08,15.08836099,0.0001498,53.2163,107.1546,92.3798,267.7365,1.496e-05,-5e-07,0.0,0 STARLINK-3505,1 51750U 22016AN  23327.55981504 -.00000050  00000-0  14960-4 0  9993,2 51750  53.2163 107.1546 0001498  92.3798 267.7365 15.08836099 97320,6917.892,95.438,540.794,538.721,0.0
51750.0,STARLINK-3505,PAYLOAD,2023-11-23 16:36:54,15.08836904,0.0001504,53.2178,106.5604,95.5042,264.6121,5.4976e-05,5.87e-06,0.0,0 STARLINK-3505,1 51750U 22016AN  23327.69229643  .00000587  00000-0  54976-4 0  9992,2 51750  53.2178 106.5604 0001504  95.5042 264.6121 15.08836904 97342,6917.89,95.438,540.795,538.714,0.0
51750.0,STARLINK-3505,PAYLOAD,2023-11-24 08:30:46,15.08759479,0.0001897,53.2184,103.5896,91.2372,268.8838,0.0010786,0.00016882,0.0,0 STARLINK-3505,1 51750U 22016AN  23328.35470949  .00016882  00000-0  10786-2 0  9997,2 51750  53.2184 103.5896 0001897  91.2372 268.8838 15.08759479 98560,6918.127,95.443,541.304,538.679,0.0
51750.0,STARLINK-3505,PAYLOAD,2023-11-24 13:16:55,15.08832535,0.0001561,53.2181,102.6923,94.252,265.8651,-2.4216e-05,-6.73e-06,0.0,0 STARLINK-3505,1 51750U 22016AN  23328.55342501 -.00000673  00000-0 -24216-4 0  9999,2 51750  53.2181 102.6923 0001561  94.2520 265.8651 15.08832535 97478,6917.903,95.438,540.848,538.688,0.0
51750.0,STARLINK-3505,PAYLOAD,2023-11-24 18:03:05,15.08836412,0.000154,53.2182,101.7995,95.082,265.0348,-2.0842e-05,-6.2e-06,0.0,0 STARLINK-3505,1 51750U 22016AN  23328.75214286 -.00000620  00000-0 -20842-4 0  9992,2 51750  53.2182 101.7995 0001540  95.0820 265.0348 15.08836412 98628,6917.891,95.438,540.822,538.691,0.0
51750.0,STARLINK-3505,PAYLOAD,2023-11-25 13:07:42,15.08841064,0.0001511,53.2187,98.2332,96.5139,263.6025,0.00011838,1.597e-05,0.0,0 STARLINK-3505,1 51750U 22016AN  23329.54701953  .00001597  00000-0  11838-3 0  9998,2 51750  53.2187  98.2332 0001511  96.5139 263.6025 15.08841064 97629,6917.877,95.437,540.787,538.697,0.0
51750.0,STARLINK-3505,PAYLOAD,2023-11-25 16:18:28,15.08844228,0.0001728,53.2185,97.6412,77.264,282.8545,0.00014069,1.952e-05,0.0,0 STARLINK-3505,1 51750U 22016AN  23329.67949959  .00001952  00000-0  14069-3 0  9996,2 51750  53.2185  97.6412 0001728  77.2640 282.8545 15.08844228 97649,6917.867,95.437,540.928,538.537,0.0
51750.0,STARLINK-3505,PAYLOAD,2023-11-26 12:58:28,15.08848916,0.0001589,53.218,93.7729,75.6689,284.4479,0.00023357,3.432e-05,0.0,0 STARLINK-3505,1 51750U 22016AN  23330.54060996  .00003432  00000-0  23357-3 0  9994,2 51750  53.2180  93.7729 0001589  75.6689 284.4479 15.08848916 97778,6917.853,95.437,540.817,538.619,0.0
51750.0,STARLINK-3505,PAYLOAD,2023-11-26 17:44:37,15.08858809,0.0001577,53.2176,92.8795,79.516,280.601,0.00028289,4.219e-05,0.0,0 STARLINK-3505,1 51750U 22016AN  23330.73932058  .00004219  00000-0  28289-3 0  9995,2 51750  53.2176  92.8795 0001577  79.5160 280.6010 15.08858809 98929,6917.823,95.436,540.779,538.597,0.0
51750.0,STARLINK-3505,PAYLOAD,2023-11-27 14:24:40,15.08834851,0.0001469,53.2182,89.0115,94.9909,265.1251,-0.00015217,-2.709e-05,0.0,0 STARLINK-3505,1 51750U 22016AN  23331.60046930 -.00002709  00000-0 -15217-3 0  9998,2 51750  53.2182  89.0115 0001469  94.9909 265.1251 15.08834851 97938,6917.896,95.438,540.777,538.745,0.0
51750.0,STARLINK-3505,PAYLOAD,2023-11-27 17:35:26,15.08836412,0.000143,53.2179,88.4154,103.0541,257.0611,-0.00015082,-2.687e-05,0.0,0 STARLINK-3505,1 51750U 22016AN  23331.73294764 -.00002687  00000-0 -15082-3 0  9997,2 51750  53.2179  88.4154 0001430 103.0541 257.0611 15.08836412 99074,6917.891,95.438,540.746,538.767,0.0
51750.0,STARLINK-3505,PAYLOAD,2023-11-28 14:15:27,15.08840683,0.0001528,53.2185,84.5502,123.4329,236.681,-0.00010412,-1.945e-05,0.0,0 STARLINK-3505,1 51750U 22016AN  23332.59406596 -.00001945  00000-0 -10412-3 0  9998,2 51750  53.2185  84.5502 0001528 123.4329 236.6810 15.08840683 98082,6917.878,95.438,540.8,538.686,0.0
51750.0,STARLINK-3505,PAYLOAD,2023-11-28 17:26:13,15.08834105,0.000145,53.2177,83.9552,115.3789,244.7353,-6.182e-05,-1.272e-05,0.0,0 STARLINK-3505,1 51750U 22016AN  23332.72654804 -.00001272  00000-0 -61820-4 0  9993,2 51750  53.2177  83.9552 0001450 115.3789 244.7353 15.08834105 98102,6917.898,95.438,540.767,538.76,0.0
51750.0,STARLINK-3505,PAYLOAD,2023-11-29 12:30:50,15.08858702,0.0001624,53.2181,80.3887,110.8523,249.2643,0.00051384,7.903e-05,0.0,0 STARLINK-3505,1 51750U 22016AN  23333.52141837  .00007903  00000-0  51384-3 0  9997,2 51750  53.2181  80.3887 0001624 110.8523 249.2643 15.08858702 99346,6917.823,95.436,540.812,538.565,0.0
51750.0,STARLINK-3505,PAYLOAD,2023-11-29 14:06:13,15.08861296,0.0001306,53.2176,80.0898,79.7799,280.3341,0.00055934,8.63e-05,0.0,0 STARLINK-3505,1 51750U 22016AN  23333.58765778  .00008630  00000-0  55934-3 0  9992,2 51750  53.2176  80.0898 0001306  79.7799 280.3341 15.08861296 98234,6917.815,95.436,540.584,538.777,0.0
51750.0,STARLINK-3505,PAYLOAD,2023-11-30 12:21:38,15.08845354,0.0001232,53.2176,75.9305,97.9614,262.1518,9.1483e-05,1.169e-05,0.0,0 STARLINK-3505,1 51750U 22016AN  23334.51502371  .00001169  00000-0  91483-4 0  9994,2 51750  53.2176  75.9305 0001232  97.9614 262.1518 15.08845354 99496,6917.864,95.437,540.581,538.877,0.0
51750.0,STARLINK-3505,PAYLOAD,2023-12-01 12:12:25,15.08840823,0.0001459,53.2175,71.4651,78.1154,282.0001,-0.00019945,-3.461e-05,0.0,0 STARLINK-3505,1 51750U 22016AN  23335.50862612 -.00003461  00000-0 -19945-3 0  9992,2 51750  53.2175  71.4651 0001459  78.1154 282.0001 15.08840823 99642,6917.878,95.438,540.752,538.734,0.0
51750.0,STARLINK-3505,PAYLOAD,2023-12-02 13:38:35,15.08811532,0.0001479,53.2179,66.7114,97.2957,262.8203,-0.00039793,-6.61e-05,0.0,0 STARLINK-3505,1 51750U 22016AN  23336.56846816 -.00006610  00000-0 -39793-3 0  9999,2 51750  53.2179  66.7114 0001479  97.2957 262.8203 15.08811532 98680,6917.967,95.439,540.856,538.809,0.0
51750.0,STARLINK-3505,PAYLOAD,2023-12-03 13:29:25,15.08815716,0.0001514,53.2189,62.2549,70.6312,289.4844,-0.00020902,-3.611e-05,0.0,0 STARLINK-3505,1 51750U 22016AN  23337.56209985 -.00003611  00000-0 -20902-3 0  9990,2 51750  53.2189  62.2549 0001514  70.6312 289.4844 15.08815716 98835,6917.955,95.439,540.867,538.772,0.0
51750.0,STARLINK-3505,PAYLOAD,2023-12-04 11:44:48,15.08823983,0.000227,53.2191,58.0924,54.0062,306.1141,0.00038076,5.774e-05,0.0,0 STARLINK-3505,1 51750U 22016AN  23338.48944518  .00005774  00000-0  38076-3 0  9991,2 51750  53.2191  58.0924 0002270  54.0062 306.1141 15.08823983100090,6917.929,95.439,541.365,538.224,0.0
51750.0,STARLINK-3505,PAYLOAD,2023-12-04 14:55:32,15.08841598,0.0001412,53.2186,57.4965,100.889,259.2261,0.00051339,7.892e-05,0.0,0 STARLINK-3505,1 51750U 22016AN  23338.62190919  .00007892  00000-0  51339-3 0  9995,2 51750  53.2186  57.4965 0001412 100.8890 259.2261 15.08841598 98996,6917.876,95.437,540.717,538.764,0.0
51750.0,STARLINK-3505,PAYLOAD,2023-12-05 11:35:34,15.08842372,0.0001811,53.2198,53.629,115.639,244.4789,0.00033436,5.038e-05,0.0,0 STARLINK-3505,1 51750U 22016AN  23339.48303528  .00005038  00000-0  33436-3 0  9990,2 51750  53.2198  53.6290 0001811 115.6390 244.4789 15.08842372100244,6917.873,95.437,540.991,538.485,0.0
51750.0,STARLINK-3505,PAYLOAD,2023-12-06 11:26:21,15.08851238,0.0001409,53.2184,49.1703,97.8293,262.2859,-0.0001156,-2.128e-05,0.0,0 STARLINK-3505,1 51750U 22016AN  23340.47663681 -.00002128  00000-0 -11560-3 0  9993,2 51750  53.2184  49.1703 0001409  97.8293 262.2859 15.08851238100397,6917.846,95.437,540.686,538.736,0.0
51750.0,STARLINK-3505,PAYLOAD,2023-12-07 11:17:08,15.08842126,0.0001607,53.219,44.7102,109.7167,250.3999,-7.088e-05,-1.416e-05,0.0,0 STARLINK-3505,1 51750U 22016AN  23341.47023503 -.00001416  00000-0 -70880-4 0  9997,2 51750  53.2190  44.7102 0001607 109.7167 250.3999 15.08842126 99421,6917.874,95.437,540.851,538.627,0.0
51750.0,STARLINK-3505,PAYLOAD,2023-12-08 14:18:41,15.08839639,0.0001444,53.2183,39.6517,102.1329,257.9825,3.717e-05,3.04e-06,0.0,0 STARLINK-3505,1 51750U 22016AN  23342.59631310  .00000304  00000-0  37170-4 0  9990,2 51750  53.2183  39.6517 0001444 102.1329 257.9825 15.08839639 99596,6917.881,95.438,540.745,538.748,0.0
51750.0,STARLINK-3505,PAYLOAD,2023-12-09 09:23:19,15.08835684,0.0001402,53.2183,36.0816,95.9089,264.2063,1.2277e-05,-9.3e-07,0.0,0 STARLINK-3505,1 51750U 22016AN  23343.39119858 -.00000093  00000-0  12277-4 0  9994,2 51750  53.2183  36.0816 0001402  95.9089 264.2063 15.08835684100836,6917.894,95.438,540.728,538.789,0.0
51750.0,STARLINK-3505,PAYLOAD,2023-12-10 12:24:52,15.0883801,0.0001401,53.2184,31.0263,91.3565,268.7588,1.4541e-05,-5.7e-07,0.0,0 STARLINK-3505,1 51750U 22016AN  23344.51727964 -.00000057  00000-0  14541-4 0  9998,2 51750  53.2184  31.0263 0001401  91.3565 268.7588 15.08838010 99885,6917.886,95.438,540.721,538.782,0.0
51750.0,STARLINK-3505,PAYLOAD,2023-12-11 10:40:16,15.08842457,0.0001423,53.2185,26.8646,84.1031,276.0124,6.8822e-05,8.08e-06,0.0,0 STARLINK-3505,1 51750U 22016AN  23345.44463586  .00000808  00000-0  68822-4 0  9992,2 51750  53.2185  26.8646 0001423  84.1031 276.0124 15.08842457100022,6917.873,95.437,540.722,538.753,0.0
51750.0,STARLINK-3505,PAYLOAD,2023-12-12 08:55:41,15.08839112,0.0001733,53.2188,22.7047,71.7829,288.3351,3.2749e-06,-2.36e-06,0.0,0 STARLINK-3505,1 51750U 22016AN  23346.37200244 -.00000236  00000-0  32749-5 0  9991,2 51750  53.2188  22.7047 0001733  71.7829 288.3351 15.08839112101287,6917.883,95.438,540.947,538.549,0.0
